[{"OBJECT_NAME":"SKYSAT-B","OBJECT_ID":"2014-037D","EPOCH":"2026-03-09T07:49:26.226336","MEAN_MOTION":14.87724142,"ECCENTRICITY":0.00043348,"INCLINATION":98.3727,"RA_OF_ASC_NODE":21.6872,"ARG_OF_PERICENTER":234.8442,"MEAN_ANOMALY":125.2367,"EPHEMERIS_TYPE":0,"CLASSIFICATION_TYPE":"U","NORAD_CAT_ID":40072,"ELEMENT_SET_NO":999,"REV_AT_EPOCH":63111,"BSTAR":0.00024354953,"MEAN_MOTION_DOT":2.159e-5,"MEAN_MOTION_DDOT":0},{"OBJECT_NAME":"COSMOS 1823 DEB","OBJECT_ID":"1987-020EQ","EPOCH":"2026-03-01T18:15:52.328448","MEAN_MOTION":14.90188405,"ECCENTRICITY":0.00284391,"INCLINATION":74.0391,"RA_OF_ASC_NODE":216.9622,"ARG_OF_PERICENTER":41.2551,"MEAN_ANOMALY":319.0772,"EPHEMERIS_TYPE":0,"CLASSIFICATION_TYPE":"U","NORAD_CAT_ID":39816,"ELEMENT_SET_NO":999,"REV_AT_EPOCH":61549,"BSTAR":0.00021558796,"MEAN_MOTION_DOT":2.066e-5,"MEAN_MOTION_DDOT":0}]
